{"type": "FeatureCollection", "features": [ {"type": "Feature", "properties": {"norad_id": 35109, "name": "FENGYUN 1C DEB", "group": "fengyun-1c-debris", "lat": 35.81514043010387, "lon": 156.11838613575216, "alt_km": 820.1820804490844, "timestamp": "2025-12-06T09:34:17.201000+00:00", "meta": {"OBJECT_NAME": "FENGYUN 1C DEB", "OBJECT_ID": "1999-025DKM", "EPOCH": "2025-12-04T06:12:38.801088", "MEAN_MOTION": 14.20856308, "ECCENTRICITY": 0.015369, "INCLINATION": 98.6153, "RA_OF_ASC_NODE": 327.7504, "ARG_OF_PERICENTER": 58.8036, "MEAN_ANOMALY": 302.8103, "EPHEMERIS_TYPE": 0, "CLASSIFICATION_TYPE": "U", "NORAD_CAT_ID": 35109, "ELEMENT_SET_NO": 999, "REV_AT_EPOCH": 64039, "BSTAR": 0.00051563, "MEAN_MOTION_DOT": 1.214e-05, "MEAN_MOTION_DDOT": 0}, "tle": {"line1": "1 35109U 99025DKM 25338.25878242  .00001214  00000+0  51563-3 0  9992", "line2": "2 35109  98.6153 327.7504 0153690  58.8036 302.8103 14.20856308640390"}}, "geometry": {"type": "Point", "coordinates": [156.11838613575216, 35.81514043010387]}}, {"type": "Feature", "properties": {"norad_id": 35111, "name": "FENGYUN 1C DEB", "group": "fengyun-1c-debris", "lat": -39.23986410202276, "lon": -129.11904998670477, "alt_km": 847.7362063368782, "timestamp": "2025-12-06T09:34:17.201010+00:00", "meta": {"OBJECT_NAME": "FENGYUN 1C DEB", "OBJECT_ID": "1999-025DKP", "EPOCH": "2025-12-05T12:06:31.003200", "MEAN_MOTION": 14.10949301, "ECCENTRICITY": 0.00215264, "INCLINATION": 99.4667, "RA_OF_ASC_NODE": 57.7715, "ARG_OF_PERICENTER": 240.7618, "MEAN_ANOMALY": 119.1399, "EPHEMERIS_TYPE": 0, "CLASSIFICATION_TYPE": "U", "NORAD_CAT_ID": 35111, "ELEMENT_SET_NO": 999, "REV_AT_EPOCH": 64042, "BSTAR": 0.00080865112, "MEAN_MOTION_DOT": 1.406e-05, "MEAN_MOTION_DDOT": 0}, "tle": {"line1": "1 35111U 99025DKP 25339.50452550  .00001406  00000+0  80865-3 0  9994", "line2": "2 35111  99.4667  57.7715 0021526 240.7618 119.1399 14.10949301640421"}}, "geometry": {"type": "Point", "coordinates": [-129.11904998670477, -39.23986410202276]}}, {"type": "Feature", "properties": {"norad_id": 35116, "name": "FENGYUN 1C DEB", "group": "fengyun-1c-debris", "lat": 35.39646643222478, "lon": -147.3309035817215, "alt_km": 795.759064360388, "timestamp": "2025-12-06T09:34:17.201021+00:00", "meta": {"OBJECT_NAME": "FENGYUN 1C DEB", "OBJECT_ID": "1999-025DKU", "EPOCH": "2025-11-29T08:23:15.339840", "MEAN_MOTION": 14.24983182, "ECCENTRICITY": 0.00599996, "INCLINATION": 98.6639, "RA_OF_ASC_NODE": 19.4914, "ARG_OF_PERICENTER": 87.929, "MEAN_ANOMALY": 272.8759, "EPHEMERIS_TYPE": 0, "CLASSIFICATION_TYPE": "U", "NORAD_CAT_ID": 35116, "ELEMENT_SET_NO": 999, "REV_AT_EPOCH": 59769, "BSTAR": 0.0010519384, "MEAN_MOTION_DOT": 2.465e-05, "MEAN_MOTION_DDOT": 0}, "tle": {"line1": "1 35116U 99025DKU 25333.34948310  .00002465  00000+0  10519-2 0  9993", "line2": "2 35116  98.6639  19.4914 0059999  87.9290 272.8759 14.24983182597691"}}, "geometry": {"type": "Point", "coordinates": [-147.3309035817215, 35.39646643222478]}}, {"type": "Feature", "properties": {"norad_id": 35121, "name": "FENGYUN 1C DEB", "group": "fengyun-1c-debris", "lat": 63.970016367155296, "lon": -173.21468902206965, "alt_km": 795.2932439590413, "timestamp": "2025-12-06T09:34:17.201031+00:00", "meta": {"OBJECT_NAME": "FENGYUN 1C DEB", "OBJECT_ID": "1999-025DKZ", "EPOCH": "2025-11-23T20:23:41.984736", "MEAN_MOTION": 14.04733583, "ECCENTRICITY": 0.0157971, "INCLINATION": 98.3025, "RA_OF_ASC_NODE": 192.694, "ARG_OF_PERICENTER": 150.2058, "MEAN_ANOMALY": 210.8223, "EPHEMERIS_TYPE": 0, "CLASSIFICATION_TYPE": "U", "NORAD_CAT_ID": 35121, "ELEMENT_SET_NO": 999, "REV_AT_EPOCH": 60826, "BSTAR": 0.00039097454, "MEAN_MOTION_DOT": 6.63e-06, "MEAN_MOTION_DDOT": 0}, "tle": {"line1": "1 35121U 99025DKZ 25327.84979149  .00000663  00000+0  39097-3 0  9992", "line2": "2 35121  98.3025 192.6940 0157971 150.2058 210.8223 14.04733583608261"}}, "geometry": {"type": "Point", "coordinates": [-173.21468902206965, 63.970016367155296]}}, {"type": "Feature", "properties": {"norad_id": 35122, "name": "FENGYUN 1C DEB", "group": "fengyun-1c-debris", "lat": 45.443009405338906, "lon": -172.08330738511805, "alt_km": 827.9510263365482, "timestamp": "2025-12-06T09:34:17.201056+00:00", "meta": {"OBJECT_NAME": "FENGYUN 1C DEB", "OBJECT_ID": "1999-025DLA", "EPOCH": "2025-12-02T08:08:45.964032", "MEAN_MOTION": 14.14105652, "ECCENTRICITY": 0.00248418, "INCLINATION": 98.6728, "RA_OF_ASC_NODE": 355.0598, "ARG_OF_PERICENTER": 187.1016, "MEAN_ANOMALY": 172.9809, "EPHEMERIS_TYPE": 0, "CLASSIFICATION_TYPE": "U", "NORAD_CAT_ID": 35122, "ELEMENT_SET_NO": 999, "REV_AT_EPOCH": 63720, "BSTAR": 0.00038355211, "MEAN_MOTION_DOT": 6.9e-06, "MEAN_MOTION_DDOT": 0}, "tle": {"line1": "1 35122U 99025DLA 25336.33942088  .00000690  00000+0  38355-3 0  9995", "line2": "2 35122  98.6728 355.0598 0024841 187.1016 172.9809 14.14105652637206"}}, "geometry": {"type": "Point", "coordinates": [-172.08330738511805, 45.443009405338906]}}, {"type": "Feature", "properties": {"norad_id": 35123, "name": "FENGYUN 1C DEB", "group": "fengyun-1c-debris", "lat": 57.199524603292055, "lon": 148.40413363275763, "alt_km": 776.5967562271844, "timestamp": "2025-12-06T09:34:17.201068+00:00", "meta": {"OBJECT_NAME": "FENGYUN 1C DEB", "OBJECT_ID": "1999-025DLB", "EPOCH": "2025-12-05T23:10:58.256256", "MEAN_MOTION": 14.2418948, "ECCENTRICITY": 0.0049671, "INCLINATION": 99.1223, "RA_OF_ASC_NODE": 162.3921, "ARG_OF_PERICENTER": 95.3297, "MEAN_ANOMALY": 265.355, "EPHEMERIS_TYPE": 0, "CLASSIFICATION_TYPE": "U", "NORAD_CAT_ID": 35123, "ELEMENT_SET_NO": 999, "REV_AT_EPOCH": 60977, "BSTAR": 0.00090983273, "MEAN_MOTION_DOT": 2.077e-05, "MEAN_MOTION_DDOT": 0}, "tle": {"line1": "1 35123U 99025DLB 25339.96595204  .00002077  00000+0  90983-3 0  9998", "line2": "2 35123  99.1223 162.3921 0049671  95.3297 265.3550 14.24189480609774"}}, "geometry": {"type": "Point", "coordinates": [148.40413363275763, 57.199524603292055]}}, {"type": "Feature", "properties": {"norad_id": 35125, "name": "FENGYUN 1C DEB", "group": "fengyun-1c-debris", "lat": -59.4066541578317, "lon": 5.913327664449299, "alt_km": 752.3154495897679, "timestamp": "2025-12-06T09:34:17.201078+00:00", "meta": {"OBJECT_NAME": "FENGYUN 1C DEB", "OBJECT_ID": "1999-025DLD", "EPOCH": "2025-12-02T18:42:43.848288", "MEAN_MOTION": 14.33013492, "ECCENTRICITY": 0.00523769, "INCLINATION": 98.2163, "RA_OF_ASC_NODE": 348.3348, "ARG_OF_PERICENTER": 324.6836, "MEAN_ANOMALY": 35.0884, "EPHEMERIS_TYPE": 0, "CLASSIFICATION_TYPE": "U", "NORAD_CAT_ID": 35125, "ELEMENT_SET_NO": 999, "REV_AT_EPOCH": 31139, "BSTAR": 0.0017995881, "MEAN_MOTION_DOT": 4.964e-05, "MEAN_MOTION_DDOT": 0}, "tle": {"line1": "1 35125U 99025DLD 25336.77967417  .00004964  00000+0  17996-2 0  9994", "line2": "2 35125  98.2163 348.3348 0052376 324.6836  35.0884 14.33013492311390"}}, "geometry": {"type": "Point", "coordinates": [5.913327664449299, -59.4066541578317]}}, {"type": "Feature", "properties": {"norad_id": 35130, "name": "FENGYUN 1C DEB", "group": "fengyun-1c-debris", "lat": 1.7952626951374695, "lon": 4.244891884880747, "alt_km": 574.969587900212, "timestamp": "2025-12-06T09:34:17.201088+00:00", "meta": {"OBJECT_NAME": "FENGYUN 1C DEB", "OBJECT_ID": "1999-025DLJ", "EPOCH": "2025-12-03T19:51:08.700192", "MEAN_MOTION": 14.97420249, "ECCENTRICITY": 0.0006062, "INCLINATION": 99.0324, "RA_OF_ASC_NODE": 180.9884, "ARG_OF_PERICENTER": 103.2228, "MEAN_ANOMALY": 256.9666, "EPHEMERIS_TYPE": 0, "CLASSIFICATION_TYPE": "U", "NORAD_CAT_ID": 35130, "ELEMENT_SET_NO": 999, "REV_AT_EPOCH": 64780, "BSTAR": 0.011515, "MEAN_MOTION_DOT": 0.00136513, "MEAN_MOTION_DDOT": 0}, "tle": {"line1": "1 35130U 99025DLJ 25337.82718403  .00136513  00000+0  11515-1 0  9992", "line2": "2 35130  99.0324 180.9884 0006062 103.2228 256.9666 14.97420249647808"}}, "geometry": {"type": "Point", "coordinates": [4.244891884880747, 1.7952626951374695]}}, {"type": "Feature", "properties": {"norad_id": 35135, "name": "FENGYUN 1C DEB", "group": "fengyun-1c-debris", "lat": -76.93248338187769, "lon": 128.89579543536533, "alt_km": 781.3219272902852, "timestamp": "2025-12-06T09:34:17.201098+00:00", "meta": {"OBJECT_NAME": "FENGYUN 1C DEB", "OBJECT_ID": "1999-025DLP", "EPOCH": "2025-12-05T18:50:27.767040", "MEAN_MOTION": 14.2251361, "ECCENTRICITY": 0.00810371, "INCLINATION": 98.5645, "RA_OF_ASC_NODE": 348.7847, "ARG_OF_PERICENTER": 304.8867, "MEAN_ANOMALY": 54.4713, "EPHEMERIS_TYPE": 0, "CLASSIFICATION_TYPE": "U", "NORAD_CAT_ID": 35135, "ELEMENT_SET_NO": 999, "REV_AT_EPOCH": 87725, "BSTAR": 0.00084020091, "MEAN_MOTION_DOT": 1.896e-05, "MEAN_MOTION_DDOT": 0}, "tle": {"line1": "1 35135U 99025DLP 25339.78504360  .00001896  00000+0  84020-3 0  9997", "line2": "2 35135  98.5645 348.7847 0081037 304.8867  54.4713 14.22513610877250"}}, "geometry": {"type": "Point", "coordinates": [128.89579543536533, -76.93248338187769]}}, {"type": "Feature", "properties": {"norad_id": 35139, "name": "FENGYUN 1C DEB", "group": "fengyun-1c-debris", "lat": 27.001909717903914, "lon": -18.616632272950092, "alt_km": 804.2982373903342, "timestamp": "2025-12-06T09:34:17.201109+00:00", "meta": {"OBJECT_NAME": "FENGYUN 1C DEB", "OBJECT_ID": "1999-025DLT", "EPOCH": "2025-11-29T06:46:18.583392", "MEAN_MOTION": 14.21054019, "ECCENTRICITY": 0.00685814, "INCLINATION": 98.5841, "RA_OF_ASC_NODE": 338.8823, "ARG_OF_PERICENTER": 336.9878, "MEAN_ANOMALY": 22.8231, "EPHEMERIS_TYPE": 0, "CLASSIFICATION_TYPE": "U", "NORAD_CAT_ID": 35139, "ELEMENT_SET_NO": 999, "REV_AT_EPOCH": 63962, "BSTAR": 0.00042081079, "MEAN_MOTION_DOT": 8.92e-06, "MEAN_MOTION_DDOT": 0}, "tle": {"line1": "1 35139U 99025DLT 25333.28215953  .00000892  00000+0  42081-3 0  9993", "line2": "2 35139  98.5841 338.8823 0068581 336.9878  22.8231 14.21054019639626"}}, "geometry": {"type": "Point", "coordinates": [-18.616632272950092, 27.001909717903914]}}]}